{
  "type": "FeatureCollection",
  "features": [
    {
      "type": "Feature",
      "properties": {
        "norad_id": 41556,
        "name": "ZIYUAN 3-2 (ZY 3-2)",
        "group": "resource",
        "lat": -54.83907667510445,
        "lon": -134.23737381579363,
        "alt_km": 501.45825794233406,
        "timestamp": "2025-12-08T03:50:06.662244+00:00",
        "meta_object_name": "ZIYUAN 3-2 (ZY 3-2)",
        "meta_object_id": "2016-033A",
        "meta_epoch": "2025-12-07T06:16:54.306624",
        "meta_mean_motion": 15.21385434,
        "meta_eccentricity": 0.00123505,
        "meta_inclination": 97.4049,
        "meta_ra_of_asc_node": 55.519,
        "meta_arg_of_pericenter": 270.4874,
        "meta_mean_anomaly": 89.4946,
        "meta_ephemeris_type": 0,
        "meta_classification_type": "U",
        "meta_norad_cat_id": 41556,
        "meta_element_set_no": 999,
        "meta_rev_at_epoch": 52880,
        "meta_bstar": 0.00048189352,
        "meta_mean_motion_dot": 0.00010766,
        "meta_mean_motion_ddot": 0,
        "tle_line1": "1 41556U 16033A   25341.26173966  .00010766  00000+0  48189-3 0  9991",
        "tle_line2": "2 41556  97.4049  55.5190 0012350 270.4874  89.4946 15.21385434528803"
      },
      "geometry": {
        "type": "Point",
        "coordinates": [
          -134.23737381579363,
          -54.83907667510445
        ]
      }
    },
    {
      "type": "Feature",
      "properties": {
        "norad_id": 41599,
        "name": "CARTOSAT-2C",
        "group": "resource",
        "lat": -35.32217140738969,
        "lon": -145.88263971848951,
        "alt_km": 520.0261883076637,
        "timestamp": "2025-12-08T03:50:06.662254+00:00",
        "meta_object_name": "CARTOSAT-2C",
        "meta_object_id": "2016-040A",
        "meta_epoch": "2025-12-07T06:20:24.609408",
        "meta_mean_motion": 15.19214447,
        "meta_eccentricity": 0.00109623,
        "meta_inclination": 97.4769,
        "meta_ra_of_asc_node": 38.5709,
        "meta_arg_of_pericenter": 81.7897,
        "meta_mean_anomaly": 278.458,
        "meta_ephemeris_type": 0,
        "meta_classification_type": "U",
        "meta_norad_cat_id": 41599,
        "meta_element_set_no": 999,
        "meta_rev_at_epoch": 52457,
        "meta_bstar": 0.00037825558,
        "meta_mean_motion_dot": 7.91e-05,
        "meta_mean_motion_ddot": 0,
        "tle_line1": "1 41599U 16040A   25341.26417372  .00007910  00000+0  37826-3 0  9991",
        "tle_line2": "2 41599  97.4769  38.5709 0010962  81.7897 278.4580 15.19214447524577"
      },
      "geometry": {
        "type": "Point",
        "coordinates": [
          -145.88263971848951,
          -35.32217140738969
        ]
      }
    },
    {
      "type": "Feature",
      "properties": {
        "norad_id": 41601,
        "name": "SKYSAT-C1",
        "group": "resource",
        "lat": 51.87888575846972,
        "lon": 10.44623222016708,
        "alt_km": 461.86065998135473,
        "timestamp": "2025-12-08T03:50:06.662264+00:00",
        "meta_object_name": "SKYSAT-C1",
        "meta_object_id": "2016-040C",
        "meta_epoch": "2025-12-07T00:57:57.552480",
        "meta_mean_motion": 15.32437876,
        "meta_eccentricity": 0.00029548,
        "meta_inclination": 96.9827,
        "meta_ra_of_asc_node": 18.3759,
        "meta_arg_of_pericenter": 31.3205,
        "meta_mean_anomaly": 328.8214,
        "meta_ephemeris_type": 0,
        "meta_classification_type": "U",
        "meta_norad_cat_id": 41601,
        "meta_element_set_no": 999,
        "meta_rev_at_epoch": 52840,
        "meta_bstar": 0.00045537676,
        "meta_mean_motion_dot": 0.00014203,
        "meta_mean_motion_ddot": 0,
        "tle_line1": "1 41601U 16040C   25341.04024945  .00014203  00000+0  45538-3 0  9993",
        "tle_line2": "2 41601  96.9827  18.3759 0002954  31.3205 328.8214 15.32437876528405"
      },
      "geometry": {
        "type": "Point",
        "coordinates": [
          10.44623222016708,
          51.87888575846972
        ]
      }
    },
    {
      "type": "Feature",
      "properties": {
        "norad_id": 41603,
        "name": "LAPAN-A3",
        "group": "resource",
        "lat": -32.40056783629181,
        "lon": 155.31830420766315,
        "alt_km": 482.8559820180144,
        "timestamp": "2025-12-08T03:50:06.662274+00:00",
        "meta_object_name": "LAPAN-A3",
        "meta_object_id": "2016-040E",
        "meta_epoch": "2025-12-07T06:31:25.845024",
        "meta_mean_motion": 15.31485968,
        "meta_eccentricity": 0.00103324,
        "meta_inclination": 97.1424,
        "meta_ra_of_asc_node": 339.0271,
        "meta_arg_of_pericenter": 354.4002,
        "meta_mean_anomaly": 5.7123,
        "meta_ephemeris_type": 0,
        "meta_classification_type": "U",
        "meta_norad_cat_id": 41603,
        "meta_element_set_no": 999,
        "meta_rev_at_epoch": 52542,
        "meta_bstar": 0.00020872683,
        "meta_mean_motion_dot": 6.282e-05,
        "meta_mean_motion_ddot": 0,
        "tle_line1": "1 41603U 16040E   25341.27182691  .00006282  00000+0  20873-3 0  9996",
        "tle_line2": "2 41603  97.1424 339.0271 0010332 354.4002   5.7123 15.31485968525421"
      },
      "geometry": {
        "type": "Point",
        "coordinates": [
          155.31830420766315,
          -32.40056783629181
        ]
      }
    },
    {
      "type": "Feature",
      "properties": {
        "norad_id": 41604,
        "name": "BIROS",
        "group": "resource",
        "lat": 5.63814162198009,
        "lon": -165.88240824522262,
        "alt_km": 308.8892463547427,
        "timestamp": "2025-12-08T03:50:06.662285+00:00",
        "meta_object_name": "BIROS",
        "meta_object_id": "2016-040F",
        "meta_epoch": "2025-12-07T01:23:11.861088",
        "meta_mean_motion": 15.87363914,
        "meta_eccentricity": 0.00030674,
        "meta_inclination": 97.068,
        "meta_ra_of_asc_node": 12.2729,
        "meta_arg_of_pericenter": 160.568,
        "meta_mean_anomaly": 199.571,
        "meta_ephemeris_type": 0,
        "meta_classification_type": "U",
        "meta_norad_cat_id": 41604,
        "meta_element_set_no": 999,
        "meta_rev_at_epoch": 52782,
        "meta_bstar": 0.00071317308,
        "meta_mean_motion_dot": 0.00189994,
        "meta_mean_motion_ddot": 0,
        "tle_line1": "1 41604U 16040F   25341.05777617  .00189994  00000+0  71317-3 0  9992",
        "tle_line2": "2 41604  97.0680  12.2729 0003067 160.5680 199.5710 15.87363914527825"
      },
      "geometry": {
        "type": "Point",
        "coordinates": [
          -165.88240824522262,
          5.63814162198009
        ]
      }
    },
    {
      "type": "Feature",
      "properties": {
        "norad_id": 41727,
        "name": "GAOFEN-3",
        "group": "resource",
        "lat": 19.51666358899556,
        "lon": -15.187664707529839,
        "alt_km": 750.5856901480647,
        "timestamp": "2025-12-08T03:50:06.662295+00:00",
        "meta_object_name": "GAOFEN-3",
        "meta_object_id": "2016-049A",
        "meta_epoch": "2025-12-07T07:45:46.941408",
        "meta_mean_motion": 14.42211805,
        "meta_eccentricity": 0.00015099,
        "meta_inclination": 98.404,
        "meta_ra_of_asc_node": 346.9924,
        "meta_arg_of_pericenter": 70.0717,
        "meta_mean_anomaly": 290.0635,
        "meta_ephemeris_type": 0,
        "meta_classification_type": "U",
        "meta_norad_cat_id": 41727,
        "meta_element_set_no": 999,
        "meta_rev_at_epoch": 49099,
        "meta_bstar": 6.6618425e-05,
        "meta_mean_motion_dot": 1.76e-06,
        "meta_mean_motion_ddot": 0,
        "tle_line1": "1 41727U 16049A   25341.32345997  .00000176  00000+0  66618-4 0  9992",
        "tle_line2": "2 41727  98.4040 346.9924 0001509  70.0717 290.0635 14.42211805490996"
      },
      "geometry": {
        "type": "Point",
        "coordinates": [
          -15.187664707529839,
          19.51666358899556
        ]
      }
    },
    {
      "type": "Feature",
      "properties": {
        "norad_id": 41771,
        "name": "SKYSAT-C4",
        "group": "resource",
        "lat": -9.365038921256879,
        "lon": -173.57989774752082,
        "alt_km": 443.97861129498324,
        "timestamp": "2025-12-08T03:50:06.662305+00:00",
        "meta_object_name": "SKYSAT-C4",
        "meta_object_id": "2016-058B",
        "meta_epoch": "2025-12-07T00:32:27.047328",
        "meta_mean_motion": 15.42009981,
        "meta_eccentricity": 9.982e-05,
        "meta_inclination": 96.9374,
        "meta_ra_of_asc_node": 6.489,
        "meta_arg_of_pericenter": 131.1429,
        "meta_mean_anomaly": 228.9905,
        "meta_ephemeris_type": 0,
        "meta_classification_type": "U",
        "meta_norad_cat_id": 41771,
        "meta_element_set_no": 999,
        "meta_rev_at_epoch": 51579,
        "meta_bstar": 0.00051267027,
        "meta_mean_motion_dot": 0.00021813,
        "meta_mean_motion_ddot": 0,
        "tle_line1": "1 41771U 16058B   25341.02253527  .00021813  00000+0  51267-3 0  9999",
        "tle_line2": "2 41771  96.9374   6.4890 0000998 131.1429 228.9905 15.42009981515795"
      },
      "geometry": {
        "type": "Point",
        "coordinates": [
          -173.57989774752082,
          -9.365038921256879
        ]
      }
    }
  ]
}